NORAD_CAT_ID,OBJECT_NAME,OBJECT_TYPE,EPOCH,MEAN_MOTION,ECCENTRICITY,INCLINATION,RA_OF_ASC_NODE,ARG_OF_PERICENTER,MEAN_ANOMALY,BSTAR,MEAN_MOTION_DOT,MEAN_MOTION_DDOT,TLE_LINE0,TLE_LINE1,TLE_LINE2,SEMIMAJOR_AXIS,PERIOD,APOGEE,PERIGEE,DECAYED
53868.0,STARLINK-4789,PAYLOAD,2024-04-07 09:42:56,15.08835303,0.0001548,53.2161,172.2199,90.3994,269.7175,-2.5903e-05,-7e-06,0.0,0 STARLINK-4789,1 53868U 22114BC  24098.40482368 -.00000700  00000-0 -25903-4 0  9990,2 53868  53.2161 172.2199 0001548  90.3994 269.7175 15.08835303 86987,6917.895,95.438,540.831,538.689,0.0
53868.0,STARLINK-4789,PAYLOAD,2024-04-07 14:29:06,15.08838501,0.000158,53.2159,171.3268,95.5742,264.5431,-2.1736e-05,-6.34e-06,0.0,0 STARLINK-4789,1 53868U 22114BC  24098.60354232 -.00000634  00000-0 -21736-4 0  9996,2 53868  53.2159 171.3268 0001580  95.5742 264.5431 15.08838501 87550,6917.885,95.438,540.843,538.657,0.0
53868.0,STARLINK-4789,PAYLOAD,2024-04-07 22:26:02,15.0882311,0.0001569,53.217,169.8401,106.2523,253.8642,0.00037461,5.676e-05,0.0,0 STARLINK-4789,1 53868U 22114BC  24098.93474715  .00005676  00000-0  37461-3 0  9991,2 53868  53.2170 169.8401 0001569 106.2523 253.8642 15.08823110 87609,6917.932,95.439,540.882,538.712,0.0
53868.0,STARLINK-4789,PAYLOAD,2024-04-08 11:09:06,15.08839128,0.0001739,53.2165,167.4608,101.0683,259.0505,0.00014736,2.058e-05,0.0,0 STARLINK-4789,1 53868U 22114BC  24099.46466166  .00002058  00000-0  14736-3 0  9992,2 53868  53.2165 167.4608 0001739 101.0683 259.0505 15.08839128 87146,6917.883,95.438,540.951,538.545,0.0
53868.0,STARLINK-4789,PAYLOAD,2024-04-08 14:19:53,15.08839319,0.0001734,53.2166,166.8662,101.3031,258.8156,0.00014566,2.031e-05,0.0,0 STARLINK-4789,1 53868U 22114BC  24099.59714221  .00002031  00000-0  14566-3 0  9996,2 53868  53.2166 166.8662 0001734 101.3031 258.8156 15.08839319 87708,6917.882,95.438,540.947,538.548,0.0
53868.0,STARLINK-4789,PAYLOAD,2024-04-09 10:59:53,15.08840624,0.0001467,53.2165,163.0033,91.5516,268.5644,0.00015715,2.214e-05,0.0,0 STARLINK-4789,1 53868U 22114BC  24100.45826205  .00002214  00000-0  15715-3 0  9990,2 53868  53.2165 163.0033 0001467  91.5516 268.5644 15.08840624 87834,6917.878,95.438,540.758,538.729,0.0
53868.0,STARLINK-4789,PAYLOAD,2024-04-10 10:50:42,15.088163,0.0001214,53.2157,158.5414,97.5836,262.5294,0.00030376,4.547e-05,0.0,0 STARLINK-4789,1 53868U 22114BC  24101.45187636  .00004547  00000-0  30376-3 0  9990,2 53868  53.2157 158.5414 0001214  97.5836 262.5294 15.08816300 87444,6917.953,95.439,540.658,538.978,0.0
53868.0,STARLINK-4789,PAYLOAD,2024-04-10 20:22:59,15.08844982,0.0001323,53.2168,156.756,88.7646,271.3497,-3.4152e-05,-8.31e-06,0.0,0 STARLINK-4789,1 53868U 22114BC  24101.84930296 -.00000831  00000-0 -34152-4 0  9992,2 53868  53.2168 156.7560 0001323  88.7646 271.3497 15.08844982 87507,6917.865,95.437,540.645,538.815,0.0
53868.0,STARLINK-4789,PAYLOAD,2024-04-11 10:41:28,15.08840741,0.0001364,53.2171,154.0805,88.7196,271.3952,6.3621e-05,7.25e-06,0.0,0 STARLINK-4789,1 53868U 22114BC  24102.44546403  .00000725  00000-0  63621-4 0  9995,2 53868  53.2171 154.0805 0001364  88.7196 271.3952 15.08840741 88134,6917.878,95.438,540.687,538.8,0.0
53868.0,STARLINK-4789,PAYLOAD,2024-04-11 20:13:46,15.08849856,0.000147,53.2178,152.297,95.13,264.986,9.1791e-05,1.174e-05,0.0,0 STARLINK-4789,1 53868U 22114BC  24102.84289650  .00001174  00000-0  91791-4 0  9995,2 53868  53.2178 152.2970 0001470  95.1300 264.9860 15.08849856 88199,6917.85,95.437,540.732,538.698,0.0
53868.0,STARLINK-4789,PAYLOAD,2024-04-12 10:32:15,15.08832883,0.0001478,53.2167,149.6212,97.291,262.825,5.0034e-05,5.08e-06,0.0,0 STARLINK-4789,1 53868U 22114BC  24103.43907073  .00000508  00000-0  50034-4 0  9992,2 53868  53.2167 149.6212 0001478  97.2910 262.8250 15.08832883 87746,6917.902,95.438,540.79,538.745,0.0
53868.0,STARLINK-4789,PAYLOAD,2024-04-13 10:23:02,15.08841173,0.0001409,53.2162,145.1597,95.2576,264.8577,3.3574e-05,2.46e-06,0.0,0 STARLINK-4789,1 53868U 22114BC  24104.43266863  .00000246  00000-0  33574-4 0  9997,2 53868  53.2162 145.1597 0001409  95.2576 264.8577 15.08841173 88431,6917.877,95.437,540.717,538.767,0.0
53868.0,STARLINK-4789,PAYLOAD,2024-04-14 08:38:26,15.08845156,0.0001529,53.2163,140.9958,83.592,276.5246,0.00016002,2.26e-05,0.0,0 STARLINK-4789,1 53868U 22114BC  24105.36002479  .00002260  00000-0  16002-3 0  9995,2 53868  53.2163 140.9958 0001529  83.5920 276.5246 15.08845156 88575,6917.865,95.437,540.787,538.672,0.0
53868.0,STARLINK-4789,PAYLOAD,2024-04-15 05:18:26,15.0884865,0.0001507,53.2161,137.1302,84.7561,275.3603,0.00014573,2.033e-05,0.0,0 STARLINK-4789,1 53868U 22114BC  24106.22114211  .00002033  00000-0  14573-3 0  9998,2 53868  53.2161 137.1302 0001507  84.7561 275.3603 15.08848650 88165,6917.854,95.437,540.761,538.676,0.0
53868.0,STARLINK-4789,PAYLOAD,2024-04-15 11:39:59,15.088477,0.0001438,53.2147,135.9405,90.8827,269.233,0.00015781,2.225e-05,0.0,0 STARLINK-4789,1 53868U 22114BC  24106.48610270  .00002225  00000-0  15781-3 0  9997,2 53868  53.2147 135.9405 0001438  90.8827 269.2330 15.08847700 88743,6917.857,95.437,540.717,538.727,0.0
53868.0,STARLINK-4789,PAYLOAD,2024-04-16 05:09:13,15.0884505,0.0001524,53.215,132.6675,95.4973,264.6193,5.6537e-05,6.12e-06,0.0,0 STARLINK-4789,1 53868U 22114BC  24107.21474227  .00000612  00000-0  56537-4 0  9992,2 53868  53.2150 132.6675 0001524  95.4973 264.6193 15.08845050 88314,6917.865,95.437,540.784,538.676,0.0
53868.0,STARLINK-4789,PAYLOAD,2024-04-16 08:19:59,15.08846463,0.00015,53.2159,132.0728,96.4861,263.6302,4.1288e-05,3.69e-06,0.0,0 STARLINK-4789,1 53868U 22114BC  24107.34722137  .00000369  00000-0  41288-4 0  9998,2 53868  53.2159 132.0728 0001500  96.4861 263.6302 15.08846463 88878,6917.861,95.437,540.763,538.688,0.0
53868.0,STARLINK-4789,PAYLOAD,2024-04-17 05:00:02,15.08826872,0.0001308,53.2153,128.2101,80.521,279.593,-8.8273e-05,-1.692e-05,0.0,0 STARLINK-4789,1 53868U 22114BC  24108.20835740 -.00001692  00000-0 -88273-4 0  9996,2 53868  53.2153 128.2101 0001308  80.5210 279.5930 15.08826872 88462,6917.921,95.438,540.69,538.881,0.0
53868.0,STARLINK-4789,PAYLOAD,2024-04-17 08:10:48,15.08830335,0.0001493,53.2155,127.6151,93.236,266.8803,-6.1753e-05,-1.27e-05,0.0,0 STARLINK-4789,1 53868U 22114BC  24108.34083473 -.00001270  00000-0 -61753-4 0  9995,2 53868  53.2155 127.6151 0001493  93.2360 266.8803 15.08830335 89024,6917.91,95.438,540.808,538.742,0.0
53868.0,STARLINK-4789,PAYLOAD,2024-04-18 08:01:35,15.08828398,0.0001401,53.2157,123.1503,92.6633,267.452,-2.3554e-05,-6.63e-06,0.0,0 STARLINK-4789,1 53868U 22114BC  24109.33444111 -.00000663  00000-0 -23554-4 0  9997,2 53868  53.2157 123.1503 0001401  92.6633 267.4520 15.08828398 88638,6917.916,95.438,540.75,538.812,0.0
53868.0,STARLINK-4789,PAYLOAD,2024-04-19 04:41:35,15.08836172,0.0001342,53.2156,119.2843,100.0202,260.0942,0.00019675,2.844e-05,0.0,0 STARLINK-4789,1 53868U 22114BC  24110.19555511  .00002844  00000-0  19675-3 0  9999,2 53868  53.2156 119.2843 0001342 100.0202 260.0942 15.08836172 88760,6917.892,95.438,540.685,538.829,0.0
53868.0,STARLINK-4789,PAYLOAD,2024-04-19 07:52:22,15.08840356,0.0001359,53.216,118.6907,96.9292,263.1854,0.00023981,3.531e-05,0.0,0 STARLINK-4789,1 53868U 22114BC  24110.32803344  .00003531  00000-0  23981-3 0  9993,2 53868  53.2160 118.6907 0001359  96.9292 263.1854 15.08840356 89327,6917.879,95.438,540.684,538.804,0.0
53868.0,STARLINK-4789,PAYLOAD,2024-04-20 09:18:31,15.08855153,0.000131,53.2147,113.9359,96.6822,263.4319,0.00028669,4.28e-05,0.0,0 STARLINK-4789,1 53868U 22114BC  24111.38786785  .00004280  00000-0  28669-3 0  9999,2 53868  53.2147 113.9359 0001310  96.6822 263.4319 15.08855153 88941,6917.834,95.437,540.605,538.793,0.0
53868.0,STARLINK-4789,PAYLOAD,2024-04-21 04:23:09,15.08838573,0.000163,53.2146,110.3661,91.2347,268.8832,-0.00010716,-1.993e-05,0.0,0 STARLINK-4789,1 53868U 22114BC  24112.18275394 -.00001993  00000-0 -10716-3 0  9991,2 53868  53.2146 110.3661 0001630  91.2347 268.8832 15.08838573 89065,6917.885,95.438,540.877,538.622,0.0
53868.0,STARLINK-4789,PAYLOAD,2024-04-21 09:09:19,15.08840855,0.0001568,53.2156,109.4735,86.3693,273.7478,-2.531e-05,-6.91e-06,0.0,0 STARLINK-4789,1 53868U 22114BC  24112.38147370 -.00000691  00000-0 -25310-4 0  9996,2 53868  53.2156 109.4735 0001568  86.3693 273.7478 15.08840855 89636,6917.878,95.438,540.827,538.658,0.0
53868.0,STARLINK-4789,PAYLOAD,2024-04-22 09:00:06,15.08841251,0.0001521,53.2151,105.0126,94.3348,265.7818,0.00017274,2.462e-05,0.0,0 STARLINK-4789,1 53868U 22114BC  24113.37507603  .00002462  00000-0  17274-3 0  9990,2 53868  53.2151 105.0126 0001521  94.3348 265.7818 15.08841251 89249,6917.877,95.437,540.794,538.689,0.0
53868.0,STARLINK-4789,PAYLOAD,2024-04-23 05:40:07,15.0884273,0.0001489,53.2159,101.1461,101.6526,258.4633,0.00016925,2.407e-05,0.0,0 STARLINK-4789,1 53868U 22114BC  24114.23619585  .00002407  00000-0  16925-3 0  9990,2 53868  53.2159 101.1461 0001489 101.6526 258.4633 15.08842730 89910,6917.872,95.437,540.767,538.707,0.0
53868.0,STARLINK-4789,PAYLOAD,2024-04-24 03:55:31,15.08836784,0.0001623,53.2165,96.9819,119.1964,240.919,4.2659e-05,3.91e-06,0.0,0 STARLINK-4789,1 53868U 22114BC  24115.16355803  .00000391  00000-0  42659-4 0  9997,2 53868  53.2165  96.9819 0001623 119.1964 240.9190 15.08836784 89517,6917.89,95.438,540.878,538.632,0.0
53868.0,STARLINK-4789,PAYLOAD,2024-04-24 05:30:54,15.08835225,0.0001483,53.2163,96.6848,114.147,245.9677,1.108e-05,-1.12e-06,0.0,0 STARLINK-4789,1 53868U 22114BC  24115.22979909 -.00000112  00000-0  11080-4 0  9999,2 53868  53.2163  96.6848 0001483 114.1470 245.9677 15.08835225 90061,6917.895,95.438,540.786,538.734,0.0
53868.0,STARLINK-4789,PAYLOAD,2024-04-24 23:00:09,15.08838573,0.0001334,53.2176,93.4137,105.3433,254.7707,5.8082e-05,6.37e-06,0.0,0 STARLINK-4789,1 53868U 22114BC  24115.95843962  .00000637  00000-0  58082-4 0  9992,2 53868  53.2176  93.4137 0001334 105.3433 254.7707 15.08838573 90170,6917.885,95.438,540.673,538.827,0.0
